CCSDS_OEM_VERS = 1.0
CREATION_DATE  = 2017-05-11T10:57:47
ORIGINATOR     = GMAT USER

META_START
OBJECT_NAME          = MOPSSat_alt_35785_km_RAAN_0_032
OBJECT_ID            = SatId
CENTER_NAME          = Earth
REF_FRAME            = EME2000
TIME_SYSTEM          = UTC
START_TIME           = 2017-01-01T00:00:00.000
USEABLE_START_TIME   = 2017-01-01T00:00:00.000
USEABLE_STOP_TIME    = 2017-01-02T00:00:00.000
STOP_TIME            = 2017-01-02T00:00:00.000
INTERPOLATION        = Lagrange
INTERPOLATION_DEGREE = 7 
META_STOP


                                                                                   

2017-01-01T17:25:00.000  -5.882723320246891e+03  -4.175250688507340e+04   4.964823447107423e-02   3.044547821301803e+00  -4.288924283420452e-01  -8.778524090129560e-05
2017-01-01T17:25:10.000  -5.852276279945599e+03  -4.175678470832529e+04   4.877022411532374e-02   3.044859876305144e+00  -4.266721711043720e-01  -8.781682366968927e-05
2017-01-01T17:25:20.000  -5.821826127123581e+03  -4.176104032787806e+04   4.789189804709579e-02   3.045170312270048e+00  -4.244516869161762e-01  -8.784838301250636e-05
2017-01-01T17:25:30.000  -5.791372878109699e+03  -4.176527374144897e+04   4.701325650475546e-02   3.045479129029888e+00  -4.222309769680198e-01  -8.787991890199494e-05
2017-01-01T17:25:40.000  -5.760916549236996e+03  -4.176948494676672e+04   4.613429972701745e-02   3.045786326418872e+00  -4.200100424507684e-01  -8.791143131040084e-05
2017-01-01T17:25:50.000  -5.730457156733859e+03  -4.177367394158740e+04   4.525502794981327e-02   3.046091904273207e+00  -4.177888845476576e-01  -8.794292021005976e-05
2017-01-01T17:26:00.000  -5.699994716796494e+03  -4.177784072368336e+04   4.437544140837359e-02   3.046395862430286e+00  -4.155675044395757e-01  -8.797438557334226e-05
2017-01-01T17:26:10.000  -5.669529245588954e+03  -4.178198529084364e+04   4.349554033723129e-02   3.046698200728712e+00  -4.133459033050673e-01  -8.800582737264642e-05
2017-01-01T17:26:20.000  -5.639060759170382e+03  -4.178610764088275e+04   4.261532496811161e-02   3.046998919008952e+00  -4.111240823150258e-01  -8.803724558049300e-05
2017-01-01T17:26:30.000  -5.608589273604012e+03  -4.179020777162658e+04   4.173479553308757e-02   3.047298017112304e+00  -4.089020426406452e-01  -8.806864016939251e-05
2017-01-01T17:26:40.000  -5.578114804968212e+03  -4.179428568091123e+04   4.085395226490053e-02   3.047595494880803e+00  -4.066797854542215e-01  -8.810001111184169e-05
2017-01-01T17:26:50.000  -5.547637369386604e+03  -4.179834136657741e+04   3.997279539781731e-02   3.047891352156824e+00  -4.044573119313524e-01  -8.813135838026999e-05
2017-01-01T17:27:00.000  -5.517156983052671e+03  -4.180237482646883e+04   3.909132516835841e-02   3.048185588782959e+00  -4.022346232527296e-01  -8.816268194703709e-05
2017-01-01T17:27:10.000  -5.486673662139993e+03  -4.180638605844350e+04   3.820954181269602e-02   3.048478204602845e+00  -4.000117205975933e-01  -8.819398178451689e-05
2017-01-01T17:27:20.000  -5.456187423204197e+03  -4.181037506032304e+04   3.732744557830367e-02   3.048769199457461e+00  -3.977886051730447e-01  -8.822525786470750e-05
2017-01-01T17:27:30.000  -5.425698282695929e+03  -4.181434182995457e+04   3.644503670984622e-02   3.049058573189644e+00  -3.955652781785293e-01  -8.825651015970885e-05
2017-01-01T17:27:40.000  -5.395206257141920e+03  -4.181828636518736e+04   3.556231545442341e-02   3.049346325642393e+00  -3.933417408190409e-01  -8.828773864154398e-05
2017-01-01T17:27:50.000  -5.364711362443621e+03  -4.182220866396398e+04   3.467928204126882e-02   3.049632456665505e+00  -3.911179942539774e-01  -8.831894328286049e-05
2017-01-01T17:28:00.000  -5.334213614576740e+03  -4.182610872422921e+04   3.379593670199683e-02   3.049916966108940e+00  -3.888940396481521e-01  -8.835012405623014e-05
2017-01-01T17:28:10.000  -5.303713029432804e+03  -4.182998654395108e+04   3.291227966602086e-02   3.050199853824359e+00  -3.866698781602391e-01  -8.838128093430722e-05
2017-01-01T17:28:20.000  -5.273209623213744e+03  -4.183384212106763e+04   3.202831117195466e-02   3.050481119661230e+00  -3.844455109715494e-01  -8.841241388943215e-05
2017-01-01T17:28:30.000  -5.242703412139042e+03  -4.183767545352736e+04   3.114403145915986e-02   3.050760763469778e+00  -3.822209392646732e-01  -8.844352289392517e-05
2017-01-01T17:28:40.000  -5.212194412445558e+03  -4.184148653928788e+04   3.025944076772893e-02   3.051038785100902e+00  -3.799961642234678e-01  -8.847460792008670e-05
2017-01-01T17:28:50.000  -5.181682640681231e+03  -4.184527537628235e+04   2.937453934703180e-02   3.051315184403710e+00  -3.777711870544770e-01  -8.850566893990200e-05
2017-01-01T17:29:00.000  -5.151168113309613e+03  -4.184904196246598e+04   2.848932744422049e-02   3.051589961228922e+00  -3.755460089580896e-01  -8.853670592543846e-05
2017-01-01T17:29:10.000  -5.120650846865599e+03  -4.185278629579733e+04   2.760380530875240e-02   3.051863115427497e+00  -3.733206311398978e-01  -8.856771884869027e-05
2017-01-01T17:29:20.000  -5.090130857266768e+03  -4.185650837432292e+04   2.671797317240922e-02   3.052134646856814e+00  -3.710950547604781e-01  -8.859870768226615e-05
2017-01-01T17:29:30.000  -5.059608160501991e+03  -4.186020819609243e+04   2.583183126927512e-02   3.052404555374476e+00  -3.688692809856068e-01  -8.862967239870283e-05
2017-01-01T17:29:40.000  -5.029082772475797e+03  -4.186388575917820e+04   2.494537983122567e-02   3.052672840839748e+00  -3.666433109749089e-01  -8.866061297061790e-05
2017-01-01T17:29:50.000  -4.998554709403327e+03  -4.186754106162465e+04   2.405861909936566e-02   3.052939503109851e+00  -3.644171459106606e-01  -8.869152937032528e-05
2017-01-01T17:30:00.000  -4.968023987517184e+03  -4.187117410148674e+04   2.317154931554948e-02   3.053204542042773e+00  -3.621907869764124e-01  -8.872242157011625e-05
2017-01-01T17:30:10.000  -4.937490623067295e+03  -4.187478487682869e+04   2.228417072236419e-02   3.053467957497181e+00  -3.599642353569778e-01  -8.875328954226562e-05
2017-01-01T17:30:20.000  -4.906954632614833e+03  -4.187837338569227e+04   2.139648357170276e-02   3.053729749330102e+00  -3.577374922598670e-01  -8.878413325871665e-05
2017-01-01T17:30:30.000  -4.876416032636425e+03  -4.188193962614080e+04   2.050848811323273e-02   3.053989917400131e+00  -3.555105588864261e-01  -8.881495269149931e-05
2017-01-01T17:30:40.000  -4.845874839682986e+03  -4.188548359624102e+04   1.962018459902011e-02   3.054248461566119e+00  -3.532834364434180e-01  -8.884574781256264e-05
2017-01-01T17:30:50.000  -4.815331069678962e+03  -4.188900529414458e+04   1.873157326314854e-02   3.054505381693101e+00  -3.510561260919227e-01  -8.887651859450312e-05
2017-01-01T17:31:00.000  -4.784784738624806e+03  -4.189250471800620e+04   1.784265434214901e-02   3.054760677646345e+00  -3.488286289985638e-01  -8.890726500983430e-05
2017-01-01T17:31:10.000  -4.754235862415672e+03  -4.189598186600499e+04   1.695342806972934e-02   3.055014349292893e+00  -3.466009463222856e-01  -8.893798703117808e-05
2017-01-01T17:31:20.000  -4.723684457328890e+03  -4.189943673628647e+04   1.606389469093792e-02   3.055266396497333e+00  -3.443730792499025e-01  -8.896868463075011e-05
2017-01-01T17:31:30.000  -4.693130539621721e+03  -4.190286932701081e+04   1.517405445048130e-02   3.055516819125325e+00  -3.421450289667651e-01  -8.899935778078839e-05
2017-01-01T17:31:40.000  -4.662574125624075e+03  -4.190627963634165e+04   1.428390759541655e-02   3.055765617042782e+00  -3.399167966635227e-01  -8.903000645345163e-05
2017-01-01T17:31:50.000  -4.632015231702717e+03  -4.190966766245173e+04   1.339345437412574e-02   3.056012790116279e+00  -3.376883835335116e-01  -8.906063062087783e-05
2017-01-01T17:32:00.000  -4.601453874244002e+03  -4.191303340352358e+04   1.250269503580014e-02   3.056258338213100e+00  -3.354597907714980e-01  -8.909123025517928e-05
2017-01-01T17:32:10.000  -4.570890069617309e+03  -4.191637685775346e+04   1.161162982937463e-02   3.056502261201537e+00  -3.332310195710098e-01  -8.912180532848687e-05
2017-01-01T17:32:20.000  -4.540323834158055e+03  -4.191969802335461e+04   1.072025900304668e-02   3.056744558951116e+00  -3.310020711230987e-01  -8.915235581294774e-05
2017-01-01T17:32:30.000  -4.509755184131535e+03  -4.192299689855955e+04   9.828582803205494e-03   3.056985231332769e+00  -3.287729466137034e-01  -8.918288168078048e-05
2017-01-01T17:32:40.000  -4.479184135825854e+03  -4.192627348161074e+04   8.936601477149772e-03   3.057224278218155e+00  -3.265436472304265e-01  -8.921338290417552e-05
2017-01-01T17:32:50.000  -4.448610705148854e+03  -4.192952777080155e+04   8.044315261304584e-03   3.057461699482644e+00  -3.243141741331406e-01  -8.924385945571524e-05
2017-01-01T17:33:00.000  -4.418034908116477e+03  -4.193275976442611e+04   7.151724395493495e-03   3.057697495001659e+00  -3.220845284896027e-01  -8.927431130786891e-05
2017-01-01T17:33:10.000  -4.387456760668212e+03  -4.193596946079847e+04   6.258829117547814e-03   3.057931664652079e+00  -3.198547114619942e-01  -8.930473843318298e-05
2017-01-01T17:33:20.000  -4.356876279381998e+03  -4.193915685817739e+04   5.365629684180601e-03   3.058164208306750e+00  -3.176247242590537e-01  -8.933514080355139e-05
2017-01-01T17:33:30.000  -4.326293480759317e+03  -4.194232195484186e+04   4.472126350115296e-03   3.058395125839986e+00  -3.153945680839452e-01  -8.936551839094497e-05
2017-01-01T17:33:40.000  -4.295708381409688e+03  -4.194546474907123e+04   3.578319373469842e-03   3.058624417126136e+00  -3.131642441477114e-01  -8.939587116722190e-05
2017-01-01T17:33:50.000  -4.265120997562562e+03  -4.194858523919807e+04   2.684209001519393e-03   3.058852082043419e+00  -3.109337536336793e-01  -8.942619910462879e-05
2017-01-01T17:34:00.000  -4.234531345470042e+03  -4.195168342356416e+04   1.789795482439646e-03   3.059078120470736e+00  -3.087030977268286e-01  -8.945650217538497e-05
